{"type": "FeatureCollection", "features": [ {"type": "Feature", "properties": {"norad_id": 30121, "name": "FENGYUN 1C DEB", "group": "fengyun-1c-debris", "lat": 20.74778364606295, "lon": 8.89976360396527, "alt_km": 773.5334095869812, "timestamp": "2025-12-16T13:52:37.797303+00:00", "meta": {"OBJECT_NAME": "FENGYUN 1C DEB", "OBJECT_ID": "1999-025SA", "EPOCH": "2025-12-15T23:06:39.796704", "MEAN_MOTION": 14.40039491, "ECCENTRICITY": 0.00311407, "INCLINATION": 102.1653, "RA_OF_ASC_NODE": 12.7164, "ARG_OF_PERICENTER": 156.9911, "MEAN_ANOMALY": 276.6548, "EPHEMERIS_TYPE": 0, "CLASSIFICATION_TYPE": "U", "NORAD_CAT_ID": 30121, "ELEMENT_SET_NO": 999, "REV_AT_EPOCH": 97586, "BSTAR": 0.0014773708, "MEAN_MOTION_DOT": 4.611e-05, "MEAN_MOTION_DDOT": 0}, "tle": {"line1": "1 30121U 99025SA  25349.96296061  .00004611  00000+0  14774-2 0  9990", "line2": "2 30121 102.1653  12.7164 0031140 156.9911 276.6548 14.40039491975867"}}, "geometry": {"type": "Point", "coordinates": [8.89976360396527, 20.74778364606295]}}, {"type": "Feature", "properties": {"norad_id": 30123, "name": "FENGYUN 1C DEB", "group": "fengyun-1c-debris", "lat": -39.70660860062178, "lon": -63.96144624364542, "alt_km": 873.4587796354881, "timestamp": "2025-12-16T13:52:37.797313+00:00", "meta": {"OBJECT_NAME": "FENGYUN 1C DEB", "OBJECT_ID": "1999-025SC", "EPOCH": "2025-12-15T02:42:02.595456", "MEAN_MOTION": 14.25999506, "ECCENTRICITY": 0.02306864, "INCLINATION": 96.926, "RA_OF_ASC_NODE": 289.0843, "ARG_OF_PERICENTER": 77.6398, "MEAN_ANOMALY": 285.0504, "EPHEMERIS_TYPE": 0, "CLASSIFICATION_TYPE": "U", "NORAD_CAT_ID": 30123, "ELEMENT_SET_NO": 999, "REV_AT_EPOCH": 97281, "BSTAR": 0.0010800862, "MEAN_MOTION_DOT": 3.381e-05, "MEAN_MOTION_DDOT": 0}, "tle": {"line1": "1 30123U 99025SC  25349.11253004  .00003381  00000+0  10801-2 0  9999", "line2": "2 30123  96.9260 289.0843 0230686  77.6398 285.0504 14.25999506972813"}}, "geometry": {"type": "Point", "coordinates": [-63.96144624364542, -39.70660860062178]}}, {"type": "Feature", "properties": {"norad_id": 30124, "name": "FENGYUN 1C DEB", "group": "fengyun-1c-debris", "lat": 79.13335954550466, "lon": -12.389715663410835, "alt_km": 735.8589843873706, "timestamp": "2025-12-16T13:52:37.797324+00:00", "meta": {"OBJECT_NAME": "FENGYUN 1C DEB", "OBJECT_ID": "1999-025SD", "EPOCH": "2025-12-15T17:39:20.679264", "MEAN_MOTION": 14.14242909, "ECCENTRICITY": 0.01432069, "INCLINATION": 99.132, "RA_OF_ASC_NODE": 43.6685, "ARG_OF_PERICENTER": 97.4145, "MEAN_ANOMALY": 19.6685, "EPHEMERIS_TYPE": 0, "CLASSIFICATION_TYPE": "U", "NORAD_CAT_ID": 30124, "ELEMENT_SET_NO": 999, "REV_AT_EPOCH": 96957, "BSTAR": 0.00073397219, "MEAN_MOTION_DOT": 1.501e-05, "MEAN_MOTION_DDOT": 0}, "tle": {"line1": "1 30124U 99025SD  25349.73565601  .00001501  00000+0  73397-3 0  9999", "line2": "2 30124  99.1320  43.6685 0143206  97.4145  19.6685 14.14242909969571"}}, "geometry": {"type": "Point", "coordinates": [-12.389715663410835, 79.13335954550466]}}, {"type": "Feature", "properties": {"norad_id": 30125, "name": "FENGYUN 1C DEB", "group": "fengyun-1c-debris", "lat": -3.4928683694751106, "lon": 89.88641185912942, "alt_km": 592.764525733216, "timestamp": "2025-12-16T13:52:37.797334+00:00", "meta": {"OBJECT_NAME": "FENGYUN 1C DEB", "OBJECT_ID": "1999-025SE", "EPOCH": "2025-12-15T19:53:33.249120", "MEAN_MOTION": 14.22669671, "ECCENTRICITY": 0.03420278, "INCLINATION": 98.7236, "RA_OF_ASC_NODE": 88.6059, "ARG_OF_PERICENTER": 335.2171, "MEAN_ANOMALY": 144.0879, "EPHEMERIS_TYPE": 0, "CLASSIFICATION_TYPE": "U", "NORAD_CAT_ID": 30125, "ELEMENT_SET_NO": 999, "REV_AT_EPOCH": 96965, "BSTAR": 0.00044338248, "MEAN_MOTION_DOT": 1.755e-05, "MEAN_MOTION_DDOT": 0}, "tle": {"line1": "1 30125U 99025SE  25349.82885705  .00001755  00000+0  44338-3 0  9994", "line2": "2 30125  98.7236  88.6059 0342027 335.2171 144.0879 14.22669671969656"}}, "geometry": {"type": "Point", "coordinates": [89.88641185912942, -3.4928683694751106]}}, {"type": "Feature", "properties": {"norad_id": 30127, "name": "FENGYUN 1C DEB", "group": "fengyun-1c-debris", "lat": -73.57553923944758, "lon": -2.401489441835595, "alt_km": 832.6964979346285, "timestamp": "2025-12-16T13:52:37.797345+00:00", "meta": {"OBJECT_NAME": "FENGYUN 1C DEB", "OBJECT_ID": "1999-025SG", "EPOCH": "2025-12-15T08:18:24.591744", "MEAN_MOTION": 14.38033973, "ECCENTRICITY": 0.00854648, "INCLINATION": 98.2076, "RA_OF_ASC_NODE": 205.737, "ARG_OF_PERICENTER": 71.2826, "MEAN_ANOMALY": 289.7614, "EPHEMERIS_TYPE": 0, "CLASSIFICATION_TYPE": "U", "NORAD_CAT_ID": 30127, "ELEMENT_SET_NO": 999, "REV_AT_EPOCH": 97273, "BSTAR": 0.0015288939, "MEAN_MOTION_DOT": 4.788e-05, "MEAN_MOTION_DDOT": 0}, "tle": {"line1": "1 30127U 99025SG  25349.34611796  .00004788  00000+0  15289-2 0  9991", "line2": "2 30127  98.2076 205.7370 0085464  71.2826 289.7614 14.38033973972730"}}, "geometry": {"type": "Point", "coordinates": [-2.401489441835595, -73.57553923944758]}}, {"type": "Feature", "properties": {"norad_id": 30128, "name": "FENGYUN 1C DEB", "group": "fengyun-1c-debris", "lat": -15.903986207656272, "lon": -9.347409757234406, "alt_km": 790.4283168553793, "timestamp": "2025-12-16T13:52:37.797355+00:00", "meta": {"OBJECT_NAME": "FENGYUN 1C DEB", "OBJECT_ID": "1999-025SH", "EPOCH": "2025-12-15T23:08:31.243200", "MEAN_MOTION": 14.46168582, "ECCENTRICITY": 0.01075304, "INCLINATION": 96.9795, "RA_OF_ASC_NODE": 348.1463, "ARG_OF_PERICENTER": 114.813, "MEAN_ANOMALY": 275.7387, "EPHEMERIS_TYPE": 0, "CLASSIFICATION_TYPE": "U", "NORAD_CAT_ID": 30128, "ELEMENT_SET_NO": 999, "REV_AT_EPOCH": 97358, "BSTAR": 0.00163294, "MEAN_MOTION_DOT": 6.241e-05, "MEAN_MOTION_DDOT": 0}, "tle": {"line1": "1 30128U 99025SH  25349.96425050  .00006241  00000+0  16329-2 0  9998", "line2": "2 30128  96.9795 348.1463 0107530 114.8130 275.7387 14.46168582973580"}}, "geometry": {"type": "Point", "coordinates": [-9.347409757234406, -15.903986207656272]}}, {"type": "Feature", "properties": {"norad_id": 30129, "name": "FENGYUN 1C DEB", "group": "fengyun-1c-debris", "lat": 44.70230919341956, "lon": -76.05328270224433, "alt_km": 772.9123460317933, "timestamp": "2025-12-16T13:52:37.797366+00:00", "meta": {"OBJECT_NAME": "FENGYUN 1C DEB", "OBJECT_ID": "1999-025SJ", "EPOCH": "2025-12-15T18:57:36.199584", "MEAN_MOTION": 14.01583963, "ECCENTRICITY": 0.01886386, "INCLINATION": 98.0282, "RA_OF_ASC_NODE": 291.2812, "ARG_OF_PERICENTER": 83.7702, "MEAN_ANOMALY": 307.9918, "EPHEMERIS_TYPE": 0, "CLASSIFICATION_TYPE": "U", "NORAD_CAT_ID": 30129, "ELEMENT_SET_NO": 999, "REV_AT_EPOCH": 96521, "BSTAR": 0.00056157408, "MEAN_MOTION_DOT": 9.58e-06, "MEAN_MOTION_DDOT": 0}, "tle": {"line1": "1 30129U 99025SJ  25349.79000231  .00000958  00000+0  56157-3 0  9993", "line2": "2 30129  98.0282 291.2812 0188638  83.7702 307.9918 14.01583963965212"}}, "geometry": {"type": "Point", "coordinates": [-76.05328270224433, 44.70230919341956]}}, {"type": "Feature", "properties": {"norad_id": 30131, "name": "FENGYUN 1C DEB", "group": "fengyun-1c-debris", "lat": 26.502893534069624, "lon": 77.94676082287637, "alt_km": 850.5573039458495, "timestamp": "2025-12-16T13:52:37.797375+00:00", "meta": {"OBJECT_NAME": "FENGYUN 1C DEB", "OBJECT_ID": "1999-025SL", "EPOCH": "2025-12-15T19:44:10.817088", "MEAN_MOTION": 14.21225183, "ECCENTRICITY": 0.00827231, "INCLINATION": 99.0761, "RA_OF_ASC_NODE": 81.742, "ARG_OF_PERICENTER": 150.2245, "MEAN_ANOMALY": 332.3758, "EPHEMERIS_TYPE": 0, "CLASSIFICATION_TYPE": "U", "NORAD_CAT_ID": 30131, "ELEMENT_SET_NO": 999, "REV_AT_EPOCH": 96732, "BSTAR": 0.0016433361, "MEAN_MOTION_DOT": 3.659e-05, "MEAN_MOTION_DDOT": 0}, "tle": {"line1": "1 30131U 99025SL  25349.82234742  .00003659  00000+0  16433-2 0  9999", "line2": "2 30131  99.0761  81.7420 0082723 150.2245 332.3758 14.21225183967322"}}, "geometry": {"type": "Point", "coordinates": [77.94676082287637, 26.502893534069624]}}, {"type": "Feature", "properties": {"norad_id": 30132, "name": "FENGYUN 1C DEB", "group": "fengyun-1c-debris", "lat": 13.558654138391894, "lon": -58.028859432654045, "alt_km": 842.9969022278328, "timestamp": "2025-12-16T13:52:37.797385+00:00", "meta": {"OBJECT_NAME": "FENGYUN 1C DEB", "OBJECT_ID": "1999-025SM", "EPOCH": "2025-12-15T19:09:57.387168", "MEAN_MOTION": 13.94853072, "ECCENTRICITY": 0.01056501, "INCLINATION": 99.5777, "RA_OF_ASC_NODE": 303.496, "ARG_OF_PERICENTER": 41.5872, "MEAN_ANOMALY": 19.9817, "EPHEMERIS_TYPE": 0, "CLASSIFICATION_TYPE": "U", "NORAD_CAT_ID": 30132, "ELEMENT_SET_NO": 999, "REV_AT_EPOCH": 96132, "BSTAR": 0.00040688774, "MEAN_MOTION_DOT": 5.25e-06, "MEAN_MOTION_DDOT": 0}, "tle": {"line1": "1 30132U 99025SM  25349.79858087  .00000525  00000+0  40689-3 0  9990", "line2": "2 30132  99.5777 303.4960 0105650  41.5872  19.9817 13.94853072961322"}}, "geometry": {"type": "Point", "coordinates": [-58.028859432654045, 13.558654138391894]}}, {"type": "Feature", "properties": {"norad_id": 30133, "name": "FENGYUN 1C DEB", "group": "fengyun-1c-debris", "lat": 61.02773730569582, "lon": 141.63293430522413, "alt_km": 926.3502134059327, "timestamp": "2025-12-16T13:52:37.797423+00:00", "meta": {"OBJECT_NAME": "FENGYUN 1C DEB", "OBJECT_ID": "1999-025SN", "EPOCH": "2025-12-15T22:50:47.698080", "MEAN_MOTION": 14.06687292, "ECCENTRICITY": 0.00856575, "INCLINATION": 98.3238, "RA_OF_ASC_NODE": 156.3887, "ARG_OF_PERICENTER": 251.308, "MEAN_ANOMALY": 241.0487, "EPHEMERIS_TYPE": 0, "CLASSIFICATION_TYPE": "U", "NORAD_CAT_ID": 30133, "ELEMENT_SET_NO": 999, "REV_AT_EPOCH": 96423, "BSTAR": 0.00112797, "MEAN_MOTION_DOT": 1.896e-05, "MEAN_MOTION_DDOT": 0}, "tle": {"line1": "1 30133U 99025SN  25349.95194095  .00001896  00000+0  11280-2 0  9997", "line2": "2 30133  98.3238 156.3887 0085657 251.3080 241.0487 14.06687292964238"}}, "geometry": {"type": "Point", "coordinates": [141.63293430522413, 61.02773730569582]}}]}